NORAD_CAT_ID,OBJECT_NAME,OBJECT_TYPE,EPOCH,MEAN_MOTION,ECCENTRICITY,INCLINATION,RA_OF_ASC_NODE,ARG_OF_PERICENTER,MEAN_ANOMALY,BSTAR,MEAN_MOTION_DOT,MEAN_MOTION_DDOT,TLE_LINE0,TLE_LINE1,TLE_LINE2,SEMIMAJOR_AXIS,PERIOD,APOGEE,PERIGEE,DECAYED
52679.0,STARLINK-4031,PAYLOAD,2022-08-28 20:00:01,15.08839337,0.0002439,53.2163,170.0174,64.9257,215.4767,-0.00014315,-2.566e-05,0.0,0 STARLINK-4031,1 52679U 22053Z   22240.83334491 -.00002566  00000-0 -14315-3 0  9994,2 52679  53.2163 170.0174 0002439  64.9257 215.4767 15.08839337 16176,6917.882,95.438,541.435,538.06,0.0
52679.0,STARLINK-4031,PAYLOAD,2022-08-28 22:00:00,15.08846457,0.0002440999999999,53.2164,169.6439,63.3974,309.9015,-0.0013322,-0.00021433,0.0,0 STARLINK-4031,1 52679U 22053Z   22240.91667824 -.00021433  00000-0 -13322-2 0  9992,2 52679  53.2164 169.6439 0002441  63.3974 309.9015 15.08846457  1302,6917.861,95.437,541.414,538.0369999999998,0.0
52679.0,STARLINK-4031,PAYLOAD,2022-08-29 14:00:01,15.08805208,0.0002339,53.2159,166.6508,62.9803,333.5019,0.00073325,0.0001139,0.0,0 STARLINK-4031,1 52679U 22053Z   22241.58334491  .00011390  00000-0  73325-3 0  9996,2 52679  53.2159 166.6508 0002339  62.9803 333.5019 15.08805208  1308,6917.986999999999,95.44,541.47,538.234,0.0
52679.0,STARLINK-4031,PAYLOAD,2022-08-29 22:00:00,15.08834766,0.000241,53.2159,165.1552,63.5498,344.4863,-0.0015502,-0.00024873,0.0,0 STARLINK-4031,1 52679U 22053Z   22241.91667824 -.00024873  00000-0 -15502-2 0  9996,2 52679  53.2159 165.1552 0002410  63.5498 344.4863 15.08834766 16336,6917.896,95.438,541.429,538.094,0.0
52679.0,STARLINK-4031,PAYLOAD,2022-08-30 14:00:01,15.08814196,0.0002395,53.2156,162.1618,63.938,7.2582,0.0019627,0.00031065,0.0,0 STARLINK-4031,1 52679U 22053Z   22242.58334491  .00031065  00000-0  19627-2 0  9992,2 52679  53.2156 162.1618 0002395  63.9380   7.2582 15.08814196 16437,6917.959,95.439,541.481,538.1669999999998,0.0
52679.0,STARLINK-4031,PAYLOAD,2022-08-30 22:00:00,15.08854063,0.0002519,53.2155,160.6661,64.3128,18.4562,-0.0015630999999999,-0.0002508999999999,0.0,0 STARLINK-4031,1 52679U 22053Z   22242.91667824 -.00025090  00000-0 -15631-2 0  9992,2 52679  53.2155 160.6661 0002519  64.3128  18.4562 15.08854063  1309,6917.837,95.437,541.445,537.96,0.0
52679.0,STARLINK-4031,PAYLOAD,2022-08-31 12:00:00,15.08857117,0.0002485999999999,53.2155,158.047,63.5588,309.5096,-0.0014053,-0.00022596,0.0,0 STARLINK-4031,1 52679U 22053Z   22243.50001157 -.00022596  00000-0 -14053-2 0  9994,2 52679  53.2155 158.0470 0002486  63.5588 309.5096 15.08857117 16576,6917.828,95.436,541.413,537.9730000000002,0.0
52679.0,STARLINK-4031,PAYLOAD,2022-08-31 14:00:01,15.08843882,0.000244,53.2155,157.6726,64.4227,41.5538,0.00010702,1.415e-05,0.0,0 STARLINK-4031,1 52679U 22053Z   22243.58334491  .00001415  00000-0  10702-3 0  9995,2 52679  53.2155 157.6726 0002440  64.4227  41.5538 15.08843882  1308,6917.869000000002,95.437,541.4209999999998,538.0459999999998,0.0
52679.0,STARLINK-4031,PAYLOAD,2022-08-31 22:00:00,15.088495000000002,0.000249,53.2155,156.1769,64.0818,53.4957,-0.0021366999999999,-0.00034144,0.0,0 STARLINK-4031,1 52679U 22053Z   22243.91667824 -.00034144  00000-0 -21367-2 0  9996,2 52679  53.2155 156.1769 0002490  64.0818  53.4957 15.08849500  1306,6917.851,95.437,541.439,537.994,0.0
52679.0,STARLINK-4031,PAYLOAD,2022-09-01 12:00:00,15.08837373,0.0002475,53.2157,153.5576,64.1737,343.6849,7.1396e-05,8.48e-06,0.0,0 STARLINK-4031,1 52679U 22053Z   22244.50001157  .00000848  00000-0  71396-4 0  9994,2 52679  53.2157 153.5576 0002475  64.1737 343.6849 15.08837373 16720,6917.888000000001,95.438,541.466,538.0409999999998,0.0
52679.0,STARLINK-4031,PAYLOAD,2022-09-01 14:00:01,15.08820075,0.0002437,53.2156,153.1831,64.8633,75.9625,0.0026006999999999,0.00041324,0.0,0 STARLINK-4031,1 52679U 22053Z   22244.58335648  .00041324  00000-0  26007-2 0  9998,2 52679  53.2156 153.1831 0002437  64.8633  75.9625 15.08820075  1305,6917.941,95.439,541.492,538.12,0.0
52679.0,STARLINK-4031,PAYLOAD,2022-09-01 22:00:00,15.08872967,0.000252,53.2157,151.6876,64.4822,87.8658,-0.0042042,-0.00066644,0.0,0 STARLINK-4031,1 52679U 22053Z   22244.91667824 -.00066644  00000-0 -42042-2 0  9990,2 52679  53.2157 151.6876 0002520  64.4822  87.8658 15.08872967  1302,6917.78,95.435,541.388,537.901,0.0
52679.0,STARLINK-4031,PAYLOAD,2022-09-02 14:00:01,15.08810373,0.0002396,53.2157,148.6938,65.7496,109.7911,0.0026857,0.0004267999999999,0.0,0 STARLINK-4031,1 52679U 22053Z   22245.58334491  .00042680  00000-0  26857-2 0  9993,2 52679  53.2157 148.6938 0002396  65.7496 109.7911 15.08810373  1308,6917.971,95.439,541.493,538.178,0.0
52679.0,STARLINK-4031,PAYLOAD,2022-09-02 22:00:01,15.08849068,0.0002504,53.216,147.1984,65.0795,122.0996,-0.0014046,-0.0002258,0.0,0 STARLINK-4031,1 52679U 22053Z   22245.91668981 -.00022580  00000-0 -14046-2 0  9990,2 52679  53.2160 147.1984 0002504  65.0795 122.0996 15.08849068  1307,6917.853,95.437,541.45,537.985,0.0
52679.0,STARLINK-4031,PAYLOAD,2022-09-03 14:00:01,15.08839125,0.0002379999999999,53.2158,144.2045,67.9325,142.394,0.0017523,0.0002771,0.0,0 STARLINK-4031,1 52679U 22053Z   22246.58334491  .00027710  00000-0  17523-2 0  9991,2 52679  53.2158 144.2045 0002380  67.9325 142.3940 15.08839125  1309,6917.8830000000025,95.438,541.395,538.102,0.0
52679.0,STARLINK-4031,PAYLOAD,2022-09-03 22:00:00,15.08855191,0.0002401999999999,53.216,142.7094,66.044,155.8918,-0.0020888,-0.00033393,0.0,0 STARLINK-4031,1 52679U 22053Z   22246.91667824 -.00033393  00000-0 -20888-2 0  9991,2 52679  53.2160 142.7094 0002402  66.0440 155.8918 15.08855191  1307,6917.834,95.437,541.361,538.0369999999998,0.0
52679.0,STARLINK-4031,PAYLOAD,2022-09-04 06:00:00,15.08845829,0.0002396999999999,53.2157,141.2133,63.1551,170.382,0.00068094,0.00010567,0.0,0 STARLINK-4031,1 52679U 22053Z   22247.25001157  .00010567  00000-0  68094-3 0  9998,2 52679  53.2157 141.2133 0002397  63.1551 170.3820 15.08845829 17145,6917.863,95.437,541.386,538.069,0.0
52679.0,STARLINK-4031,PAYLOAD,2022-09-04 14:00:01,15.08842498,0.0002213,53.2158,139.7152,69.2197,175.9978,0.00065729,0.00010189,0.0,0 STARLINK-4031,1 52679U 22053Z   22247.58335648  .00010189  00000-0  65729-3 0  9991,2 52679  53.2158 139.7152 0002213  69.2197 175.9978 15.08842498  1304,6917.873000000001,95.437,541.269,538.207,0.0
52679.0,STARLINK-4031,PAYLOAD,2022-09-04 20:00:01,15.08858017,0.0002205,53.216,138.5939,68.4288,95.4246,-0.00091324,-0.00014801,0.0,0 STARLINK-4031,1 52679U 22053Z   22247.83334491 -.00014801  00000-0 -91324-3 0  9991,2 52679  53.2160 138.5939 0002205  68.4288  95.4246 15.08858017  1308,6917.825,95.436,541.216,538.165,0.0
52679.0,STARLINK-4031,PAYLOAD,2022-09-05 04:00:00,15.08831008,0.000221,53.2157,137.0987,62.7203,112.7518,0.0014634,0.00023073,0.0,0 STARLINK-4031,1 52679U 22053Z   22248.16667824  .00023073  00000-0  14634-2 0  9994,2 52679  53.2157 137.0987 0002210  62.7203 112.7518 15.08831008 17281,6917.908,95.438,541.302,538.244,0.0
52679.0,STARLINK-4031,PAYLOAD,2022-09-05 14:00:01,15.08835445,0.0002005999999999,53.2156,135.2262,69.7372,210.2335,0.0012527,0.00019703,0.0,0 STARLINK-4031,1 52679U 22053Z   22248.58334491  .00019703  00000-0  12527-2 0  9995,2 52679  53.2156 135.2262 0002006  69.7372 210.2335 15.08835445  1309,6917.894,95.438,541.1469999999998,538.372,0.0
52679.0,STARLINK-4031,PAYLOAD,2022-09-05 20:00:01,15.08861289,0.0002004,53.2159,134.1051,67.5868,131.0746,-0.0050857,-0.00080374,0.0,0 STARLINK-4031,1 52679U 22053Z   22248.83334491 -.00080374  00000-0 -50857-2 0  9995,2 52679  53.2159 134.1051 0002004  67.5868 131.0746 15.08861289 17386,6917.815,95.436,541.067,538.294,0.0
52679.0,STARLINK-4031,PAYLOAD,2022-09-05 22:00:00,15.08838632,0.0002015,53.2157,133.7315,64.9476,226.6187,-0.0035061,-0.00055656,0.0,0 STARLINK-4031,1 52679U 22053Z   22248.91667824 -.00055656  00000-0 -35061-2 0  9998,2 52679  53.2157 133.7315 0002015  64.9476 226.6187 15.08838632  1301,6917.885,95.438,541.144,538.356,0.0
52679.0,STARLINK-4031,PAYLOAD,2022-09-06 04:00:00,15.08788769,0.0001995,53.2155,132.6097,60.767,149.484,0.002961,0.00047086,0.0,0 STARLINK-4031,1 52679U 22053Z   22249.16667824  .00047086  00000-0  29610-2 0  9995,2 52679  53.2155 132.6097 0001995  60.7670 149.4840 15.08788769 17434,6918.0369999999975,95.441,541.2819999999998,538.5219999999998,0.0
52679.0,STARLINK-4031,PAYLOAD,2022-09-06 14:00:01,15.08793201,0.000192,53.2155,130.7374,68.8081,245.8917,0.0033493999999999,0.00053353,0.0,0 STARLINK-4031,1 52679U 22053Z   22249.58334491  .00053353  00000-0  33494-2 0  9991,2 52679  53.2155 130.7374 0001920  68.8081 245.8917 15.08793201  1306,6918.023,95.441,541.217,538.56,0.0
52679.0,STARLINK-4031,PAYLOAD,2022-09-06 22:00:00,15.08830384,0.0002036,53.2156,129.2427,64.7066,261.5559,-0.0005918999999999,-9.694e-05,0.0,0 STARLINK-4031,1 52679U 22053Z   22249.91667824 -.00009694  00000-0 -59190-3 0  9990,2 52679  53.2156 129.2427 0002036  64.7066 261.5559 15.08830384 17540,6917.91,95.438,541.183,538.366,0.0
52679.0,STARLINK-4031,PAYLOAD,2022-09-07 14:00:01,15.08832332,0.0001924,53.2157,126.2484,68.9156,280.5206,0.00074923,0.00011654,0.0,0 STARLINK-4031,1 52679U 22053Z   22250.58334491  .00011654  00000-0  74923-3 0  9994,2 52679  53.2157 126.2484 0001924  68.9156 280.5206 15.08832332 17648,6917.904,95.438,541.1,538.438,0.0
52679.0,STARLINK-4031,PAYLOAD,2022-09-07 22:00:00,15.08828139,0.0002009999999999,53.2157,124.7538,63.429,297.6018,-0.0005785,-9.48e-05,0.0,0 STARLINK-4031,1 52679U 22053Z   22250.91667824 -.00009480  00000-0 -57850-3 0  9996,2 52679  53.2157 124.7538 0002010  63.4290 297.6018 15.08828139  1314,6917.917,95.438,541.172,538.391,0.0
52679.0,STARLINK-4031,PAYLOAD,2022-09-08 14:00:01,15.08822286,0.000193,53.2159,121.7593,68.3968,315.8061,0.0030594,0.00048716,0.0,0 STARLINK-4031,1 52679U 22053Z   22251.58334491  .00048716  00000-0  30594-2 0  9999,2 52679  53.2159 121.7593 0001930  68.3968 315.8061 15.08822286  1307,6917.935,95.439,541.135,538.464,0.0
